name,address,city,state,zip,phone,LAT,LON,hasSpecialties,ADDICTION MEDICINE,ADVANCED HEART FAILURE AND TRANSPLANT CARDIOLOGY,ALLERGY/IMMUNOLOGY,ANESTHESIOLOGY,ANESTHESIOLOGY ASSISTANT,AUDIOLOGIST,CARDIAC ELECTROPHYSIOLOGY,CARDIAC SURGERY,CARDIOVASCULAR DISEASE (CARDIOLOGY),CERTIFIED NURSE MIDWIFE,CERTIFIED REGISTERED NURSE ANESTHETIST,CHIROPRACTIC,CLINICAL NURSE SPECIALIST,CLINICAL PSYCHOLOGIST,CLINICAL SOCIAL WORKER,COLORECTAL SURGERY (PROCTOLOGY),CRITICAL CARE (INTENSIVISTS),DENTIST,DERMATOLOGY,DIAGNOSTIC RADIOLOGY,EMERGENCY MEDICINE,ENDOCRINOLOGY,FAMILY PRACTICE,GASTROENTEROLOGY,GENERAL PRACTICE,GENERAL SURGERY,GERIATRIC MEDICINE,GERIATRIC PSYCHIATRY,GYNECOLOGICAL ONCOLOGY,HAND SURGERY,HEMATOLOGY,HEMATOLOGY/ONCOLOGY,HEMATOPOIETIC CELL TRANSPLANTATION AND CELLULAR TH,HOSPICE/PALLIATIVE CARE,HOSPITALIST,INFECTIOUS DISEASE,INTERNAL MEDICINE,INTERVENTIONAL CARDIOLOGY,INTERVENTIONAL PAIN MANAGEMENT,INTERVENTIONAL RADIOLOGY,MAXILLOFACIAL SURGERY,MEDICAL ONCOLOGY,NEPHROLOGY,NEUROLOGY,NEUROPSYCHIATRY,NEUROSURGERY,NUCLEAR MEDICINE,NURSE PRACTITIONER,OBSTETRICS/GYNECOLOGY,OCCUPATIONAL THERAPY,OPHTHALMOLOGY,OPTOMETRY,ORAL SURGERY,ORTHOPEDIC SURGERY,OSTEOPATHIC MANIPULATIVE MEDICINE,OTOLARYNGOLOGY,PAIN MANAGEMENT,PATHOLOGY,PEDIATRIC MEDICINE,PERIPHERAL VASCULAR DISEASE,PHYSICAL MEDICINE AND REHABILITATION,PHYSICAL THERAPY,PHYSICIAN ASSISTANT,PLASTIC AND RECONSTRUCTIVE SURGERY,PODIATRY,PREVENTATIVE MEDICINE,PSYCHIATRY,PULMONARY DISEASE,RADIATION ONCOLOGY,REGISTERED DIETITIAN OR NUTRITION PROFESSIONAL,RHEUMATOLOGY,SLEEP MEDICINE,SPEECH LANGUAGE PATHOLOGIST,SPORTS MEDICINE,SURGICAL ONCOLOGY,THORACIC SURGERY,UNDEFINED PHYSICIAN TYPE (SPECIFY),UROLOGY,VASCULAR SURGERY,id
Klinikum der Universität München,Marchioninistraße 15,München,BY,81377,,48.11070565,11.469362223087817,False,,,,,,,,,,,,,,,,,,,,,,,,,,,,,,,,,,,,,,,,,,,,,,,,,,,,,,,,,,,,,,,,,,,,,,,,,,,,,,,,PCP1
Universitätsklinikum Tübingen,Geissweg 3,Tübingen,BW,72076,,48.5319577,9.0392314,False,,,,,,,,,,,,,,,,,,,,,,,,,,,,,,,,,,,,,,,,,,,,,,,,,,,,,,,,,,,,,,,,,,,,,,,,,,,,,,,,PCP2
Universitätsklinikum Ulm,Albert-Einstein-Allee 11,Ulm,BW,89081,,48.4221445,9.952400460871338,False,,,,,,,,,,,,,,,,,,,,,,,,,,,,,,,,,,,,,,,,,,,,,,,,,,,,,,,,,,,,,,,,,,,,,,,,,,,,,,,,PCP3
Universitätsklinikum des Saarlandes,Kirrberger Str. / Gebäude 86,Homburg,SN,66424,,49.306219049999996,7.346492461817151,False,,,,,,,,,,,,,,,,,,,,,,,,,,,,,,,,,,,,,,,,,,,,,,,,,,,,,,,,,,,,,,,,,,,,,,,,,,,,,,,,PCP4
Universitätsklinikum Regensburg,Franz-Josef-Strauß-Allee 11,Regensburg,BY,93053,,48.987895699999996,12.08712598842719,False,,,,,,,,,,,,,,,,,,,,,,,,,,,,,,,,,,,,,,,,,,,,,,,,,,,,,,,,,,,,,,,,,,,,,,,,,,,,,,,,PCP5
Universitätsklinikum Heidelberg,Im Neuenheimer Feld 410,Heidelberg,BW,69117,,49.4163963,8.666712690144436,False,,,,,,,,,,,,,,,,,,,,,,,,,,,,,,,,,,,,,,,,,,,,,,,,,,,,,,,,,,,,,,,,,,,,,,,,,,,,,,,,PCP6
Universitätsmedizin Göttingen,Robert-Koch-Straße 40,Göttingen,NI,37073,,51.5507809,9.942824689495206,False,,,,,,,,,,,,,,,,,,,,,,,,,,,,,,,,,,,,,,,,,,,,,,,,,,,,,,,,,,,,,,,,,,,,,,,,,,,,,,,,PCP7
Medizinische Hochschule Hannover,Carl-Neuberg-Str. 1,Hannover,NI,30625,,52.38359095,9.804349751361295,False,,,,,,,,,,,,,,,,,,,,,,,,,,,,,,,,,,,,,,,,,,,,,,,,,,,,,,,,,,,,,,,,,,,,,,,,,,,,,,,,PCP8
Universitätsklinikum Würzburg,Josef-Schneider-Str. 2,Würzburg,BY,97080,,49.807946,9.956900669586286,False,,,,,,,,,,,,,,,,,,,,,,,,,,,,,,,,,,,,,,,,,,,,,,,,,,,,,,,,,,,,,,,,,,,,,,,,,,,,,,,,PCP9
Universitätsklinikum Schleswig-Holstein - Campus Lübeck,Ratzeburger Allee 160,Lübeck,SH,23538,,53.83645475,10.7073851740822,False,,,,,,,,,,,,,,,,,,,,,,,,,,,,,,,,,,,,,,,,,,,,,,,,,,,,,,,,,,,,,,,,,,,,,,,,,,,,,,,,PCP10
Universitätsklinikum Schleswig-Holstein - Campus Kiel,Arnold-Heller-Straße 3,Kiel,SH,24105,,54.3304953,10.142887327438675,False,,,,,,,,,,,,,,,,,,,,,,,,,,,,,,,,,,,,,,,,,,,,,,,,,,,,,,,,,,,,,,,,,,,,,,,,,,,,,,,,PCP11
Universitätsklinikum Köln,Kerpener Straße 62,Köln,NW,50937,,50.925188649999996,6.920014982951278,False,,,,,,,,,,,,,,,,,,,,,,,,,,,,,,,,,,,,,,,,,,,,,,,,,,,,,,,,,,,,,,,,,,,,,,,,,,,,,,,,PCP12
Charité – Universitätsmedizin Berlin,Charitéplatz 1,Berlin,BE,10117,,52.526667,13.379722,False,,,,,,,,,,,,,,,,,,,,,,,,,,,,,,,,,,,,,,,,,,,,,,,,,,,,,,,,,,,,,,,,,,,,,,,,,,,,,,,,PCP13
Universitätsklinikum Münster,Albert-Schweitzer-Campus 1,Münster,NW,48143,,51.960550999999995,7.596033481861085,False,,,,,,,,,,,,,,,,,,,,,,,,,,,,,,,,,,,,,,,,,,,,,,,,,,,,,,,,,,,,,,,,,,,,,,,,,,,,,,,,PCP14
Universitätsklinikum Erlangen,Maximilianspl. 2 ,Erlangen,BY,91054,,49.6005848,11.010689404503191,False,,,,,,,,,,,,,,,,,,,,,,,,,,,,,,,,,,,,,,,,,,,,,,,,,,,,,,,,,,,,,,,,,,,,,,,,,,,,,,,,PCP15
Universitätsklinikum Frankfurt,Theodor-Stern-Kai 7,Frankfurt am Main,HE,60590,,50.0958799,8.659323,False,,,,,,,,,,,,,,,,,,,,,,,,,,,,,,,,,,,,,,,,,,,,,,,,,,,,,,,,,,,,,,,,,,,,,,,,,,,,,,,,PCP16
Universitätsklinikum Freiburg,Hugstetter Str. 55,Freiburg im Breisgau,BW,79104,,48.0072368,7.837299678509096,False,,,,,,,,,,,,,,,,,,,,,,,,,,,,,,,,,,,,,,,,,,,,,,,,,,,,,,,,,,,,,,,,,,,,,,,,,,,,,,,,PCP17
Universitätsklinikum Gießen/Marburg,Baldingerstraße,Marburg,HE,35043,,50.57518705,8.665508502521151,False,,,,,,,,,,,,,,,,,,,,,,,,,,,,,,,,,,,,,,,,,,,,,,,,,,,,,,,,,,,,,,,,,,,,,,,,,,,,,,,,PCP18
Otto-von-Guericke Universität Magdeburg & Universitätsklinikum Magdeburg,Leipziger Str. 44,Magdeburg,ST,39120,,52.1019596,11.6198087,False,,,,,,,,,,,,,,,,,,,,,,,,,,,,,,,,,,,,,,,,,,,,,,,,,,,,,,,,,,,,,,,,,,,,,,,,,,,,,,,,PCP19
Universitätsklinikum Carl Gustav Carus,Fetscherstr. 74,Dresden,SN,01307,,51.05653805,13.78259671548122,False,,,,,,,,,,,,,,,,,,,,,,,,,,,,,,,,,,,,,,,,,,,,,,,,,,,,,,,,,,,,,,,,,,,,,,,,,,,,,,,,PCP20
Universitätsklinikum Leipzig,Liebigstr. 18,Leipzig,SN,04103,,51.3301304,12.388615292637777,False,,,,,,,,,,,,,,,,,,,,,,,,,,,,,,,,,,,,,,,,,,,,,,,,,,,,,,,,,,,,,,,,,,,,,,,,,,,,,,,,PCP21
Universitätsklinikum Aachen,Pauwelsstr. 30,Aachen,NW,52074,,50.7769086,6.0445727164167575,False,,,,,,,,,,,,,,,,,,,,,,,,,,,,,,,,,,,,,,,,,,,,,,,,,,,,,,,,,,,,,,,,,,,,,,,,,,,,,,,,PCP22
Universitätsklinikum Jena,Bachstraße 18,Jena,TH,07743,,50.932703000000004,11.581851274751706,False,,,,,,,,,,,,,,,,,,,,,,,,,,,,,,,,,,,,,,,,,,,,,,,,,,,,,,,,,,,,,,,,,,,,,,,,,,,,,,,,PCP23
Universitätsklinikum Hamburg-Eppendorf,Martinistr. 52,Hamburg,HH,20251,,53.5908711,9.975358391548443,False,,,,,,,,,,,,,,,,,,,,,,,,,,,,,,,,,,,,,,,,,,,,,,,,,,,,,,,,,,,,,,,,,,,,,,,,,,,,,,,,PCP24
Universitätsklinikum Essen,Hufelandstr. 55,Essen,NW,45147,,51.43510405,6.988777089842989,False,,,,,,,,,,,,,,,,,,,,,,,,,,,,,,,,,,,,,,,,,,,,,,,,,,,,,,,,,,,,,,,,,,,,,,,,,,,,,,,,PCP25
Universitätsklinikum Bonn,Siegmund-Freud-Str. 25,Bonn,NW,53127,,50.700016,7.104641914215888,False,,,,,,,,,,,,,,,,,,,,,,,,,,,,,,,,,,,,,,,,,,,,,,,,,,,,,,,,,,,,,,,,,,,,,,,,,,,,,,,,PCP26
Universitätsklinikum Düsseldorf,Moorenstr. 5,Düsseldorf,NW,40225,,51.19596785,6.789820794823264,False,,,,,,,,,,,,,,,,,,,,,,,,,,,,,,,,,,,,,,,,,,,,,,,,,,,,,,,,,,,,,,,,,,,,,,,,,,,,,,,,PCP27
Universitätsklinikums der Ruhr-Universität Bochum,In der Schornau 23-25,Bochum,NW,44892,,51.4640424,7.327198735155829,False,,,,,,,,,,,,,,,,,,,,,,,,,,,,,,,,,,,,,,,,,,,,,,,,,,,,,,,,,,,,,,,,,,,,,,,,,,,,,,,,PCP28
